[{"OBJECT_NAME":"STARLINK-3336","OBJECT_ID":"2022-001R","EPOCH":"2026-03-09T13:30:33.607008","MEAN_MOTION":15.08835904,"ECCENTRICITY":0.0001406,"INCLINATION":53.2177,"RA_OF_ASC_NODE":169.6941,"ARG_OF_PERICENTER":98.4417,"MEAN_ANOMALY":261.6735,"EPHEMERIS_TYPE":0,"CLASSIFICATION_TYPE":"U","NORAD_CAT_ID":50818,"ELEMENT_SET_NO":999,"REV_AT_EPOCH":23038,"BSTAR":-1.5912e-5,"MEAN_MOTION_DOT":-5.41e-6,"MEAN_MOTION_DDOT":0},{"OBJECT_NAME":"COSMOS 252 DEB","OBJECT_ID":"1968-097M","EPOCH":"2026-03-09T21:05:06.660384","MEAN_MOTION":14.13882086,"ECCENTRICITY":0.04456891,"INCLINATION":62.2949,"RA_OF_ASC_NODE":295.7795,"ARG_OF_PERICENTER":231.9059,"MEAN_ANOMALY":124.1012,"EPHEMERIS_TYPE":0,"CLASSIFICATION_TYPE":"U","NORAD_CAT_ID":3559,"ELEMENT_SET_NO":999,"REV_AT_EPOCH":82984,"BSTAR":0.00064426371,"MEAN_MOTION_DOT":3.06e-5,"MEAN_MOTION_DDOT":0}]
